[{"OBJECT_NAME":"STARLINK-5173","OBJECT_ID":"2022-136J","EPOCH":"2026-03-09T00:42:51.435936","MEAN_MOTION":15.08832788,"ECCENTRICITY":0.00012283,"INCLINATION":53.2188,"RA_OF_ASC_NODE":347.1316,"ARG_OF_PERICENTER":87.0787,"MEAN_ANOMALY":273.0345,"EPHEMERIS_TYPE":0,"CLASSIFICATION_TYPE":"U","NORAD_CAT_ID":54059,"ELEMENT_SET_NO":999,"REV_AT_EPOCH":18674,"BSTAR":-7.706967e-5,"MEAN_MOTION_DOT":-1.514e-5,"MEAN_MOTION_DDOT":0},{"OBJECT_NAME":"OBJECT M","OBJECT_ID":"2017-042M","EPOCH":"2026-03-09T22:38:39.337440","MEAN_MOTION":15.07991931,"ECCENTRICITY":0.0005117,"INCLINATION":97.4139,"RA_OF_ASC_NODE":234.2602,"ARG_OF_PERICENTER":83.1417,"MEAN_ANOMALY":277.0393,"EPHEMERIS_TYPE":0,"CLASSIFICATION_TYPE":"U","NORAD_CAT_ID":42836,"ELEMENT_SET_NO":999,"REV_AT_EPOCH":47205,"BSTAR":0.00047182615,"MEAN_MOTION_DOT":7.201e-5,"MEAN_MOTION_DDOT":0}]
